{
  "type": "FeatureCollection",
  "features": [
    {
      "type": "Feature",
      "properties": {
        "norad_id": 41866,
        "name": "GOES 16",
        "group": "weather",
        "lat": 0.049585362108091585,
        "lon": 151.13447307974076,
        "alt_km": 35791.2368491428,
        "timestamp": "2025-12-14T11:29:49.699925+00:00",
        "meta_object_name": "GOES 16",
        "meta_object_id": "2016-071A",
        "meta_epoch": "2025-12-13T14:39:51.283008",
        "meta_mean_motion": 1.00271626,
        "meta_eccentricity": 0.00031914,
        "meta_inclination": 0.0654,
        "meta_ra_of_asc_node": 104.8375,
        "meta_arg_of_pericenter": 158.5891,
        "meta_mean_anomaly": 294.4026,
        "meta_ephemeris_type": 0,
        "meta_classification_type": "U",
        "meta_norad_cat_id": 41866,
        "meta_element_set_no": 999,
        "meta_rev_at_epoch": 3324,
        "meta_bstar": 0,
        "meta_mean_motion_dot": -7.6e-07,
        "meta_mean_motion_ddot": 0,
        "tle_line1": "1 41866U 16071A   25347.61101022 -.00000076  00000+0  00000+0 0  9996",
        "tle_line2": "2 41866   0.0654 104.8375 0003191 158.5891 294.4026  1.00271626 33245"
      },
      "geometry": {
        "type": "Point",
        "coordinates": [
          151.13447307974076,
          0.049585362108091585
        ]
      }
    },
    {
      "type": "Feature",
      "properties": {
        "norad_id": 41882,
        "name": "FENGYUN 4A",
        "group": "weather",
        "lat": -1.6325968847372414,
        "lon": 19.70051162420432,
        "alt_km": 35804.79594993239,
        "timestamp": "2025-12-14T11:29:49.699937+00:00",
        "meta_object_name": "FENGYUN 4A",
        "meta_object_id": "2016-077A",
        "meta_epoch": "2025-12-13T15:45:00.043200",
        "meta_mean_motion": 1.00269297,
        "meta_eccentricity": 0.00047722,
        "meta_inclination": 1.8518,
        "meta_ra_of_asc_node": 82.3821,
        "meta_arg_of_pericenter": 145.8549,
        "meta_mean_anomaly": 214.422,
        "meta_ephemeris_type": 0,
        "meta_classification_type": "U",
        "meta_norad_cat_id": 41882,
        "meta_element_set_no": 999,
        "meta_rev_at_epoch": 3307,
        "meta_bstar": 0,
        "meta_mean_motion_dot": -3.42e-06,
        "meta_mean_motion_ddot": 0,
        "tle_line1": "1 41882U 16077A   25347.65625050 -.00000342  00000+0  00000+0 0  9992",
        "tle_line2": "2 41882   1.8518  82.3821 0004772 145.8549 214.4220  1.00269297 33072"
      },
      "geometry": {
        "type": "Point",
        "coordinates": [
          19.70051162420432,
          -1.6325968847372414
        ]
      }
    },
    {
      "type": "Feature",
      "properties": {
        "norad_id": 41884,
        "name": "CYGFM05",
        "group": "weather",
        "lat": -6.045488432171864,
        "lon": 27.05058854266491,
        "alt_km": 429.03223185612296,
        "timestamp": "2025-12-14T11:29:49.699948+00:00",
        "meta_object_name": "CYGFM05",
        "meta_object_id": "2016-078A",
        "meta_epoch": "2025-12-13T13:52:10.970400",
        "meta_mean_motion": 15.4767691,
        "meta_eccentricity": 0.00101699,
        "meta_inclination": 34.9605,
        "meta_ra_of_asc_node": 41.6559,
        "meta_arg_of_pericenter": 190.9761,
        "meta_mean_anomaly": 169.074,
        "meta_ephemeris_type": 0,
        "meta_classification_type": "U",
        "meta_norad_cat_id": 41884,
        "meta_element_set_no": 999,
        "meta_rev_at_epoch": 49989,
        "meta_bstar": 0.00039715511,
        "meta_mean_motion_dot": 0.00021208,
        "meta_mean_motion_ddot": 0,
        "tle_line1": "1 41884U 16078A   25347.57790475  .00021208  00000+0  39716-3 0  9993",
        "tle_line2": "2 41884  34.9605  41.6559 0010169 190.9761 169.0740 15.47676910499896"
      },
      "geometry": {
        "type": "Point",
        "coordinates": [
          27.05058854266491,
          -6.045488432171864
        ]
      }
    },
    {
      "type": "Feature",
      "properties": {
        "norad_id": 41885,
        "name": "CYGFM04",
        "group": "weather",
        "lat": -31.53513401868581,
        "lon": -107.97052888905817,
        "alt_km": 411.15920411889874,
        "timestamp": "2025-12-14T11:29:49.699958+00:00",
        "meta_object_name": "CYGFM04",
        "meta_object_id": "2016-078B",
        "meta_epoch": "2025-12-13T11:15:40.578624",
        "meta_mean_motion": 15.50402135,
        "meta_eccentricity": 0.00095501,
        "meta_inclination": 34.9357,
        "meta_ra_of_asc_node": 17.1215,
        "meta_arg_of_pericenter": 217.126,
        "meta_mean_anomaly": 142.8802,
        "meta_ephemeris_type": 0,
        "meta_classification_type": "U",
        "meta_norad_cat_id": 41885,
        "meta_element_set_no": 999,
        "meta_rev_at_epoch": 50005,
        "meta_bstar": 0.00056841232,
        "meta_mean_motion_dot": 0.00033488,
        "meta_mean_motion_ddot": 0,
        "tle_line1": "1 41885U 16078B   25347.46921966  .00033488  00000+0  56841-3 0  9994",
        "tle_line2": "2 41885  34.9357  17.1215 0009550 217.1260 142.8802 15.50402135500055"
      },
      "geometry": {
        "type": "Point",
        "coordinates": [
          -107.97052888905817,
          -31.53513401868581
        ]
      }
    },
    {
      "type": "Feature",
      "properties": {
        "norad_id": 41886,
        "name": "CYGFM02",
        "group": "weather",
        "lat": -34.89490030621787,
        "lon": -83.92243219061046,
        "alt_km": 407.71490181112677,
        "timestamp": "2025-12-14T11:29:49.699968+00:00",
        "meta_object_name": "CYGFM02",
        "meta_object_id": "2016-078C",
        "meta_epoch": "2025-12-13T11:11:23.032320",
        "meta_mean_motion": 15.51783609,
        "meta_eccentricity": 0.00112279,
        "meta_inclination": 34.9445,
        "meta_ra_of_asc_node": 15.4577,
        "meta_arg_of_pericenter": 216.6757,
        "meta_mean_anomaly": 143.3197,
        "meta_ephemeris_type": 0,
        "meta_classification_type": "U",
        "meta_norad_cat_id": 41886,
        "meta_element_set_no": 999,
        "meta_rev_at_epoch": 50018,
        "meta_bstar": 0.00057142195,
        "meta_mean_motion_dot": 0.00035408,
        "meta_mean_motion_ddot": 0,
        "tle_line1": "1 41886U 16078C   25347.46623880  .00035408  00000+0  57142-3 0  9998",
        "tle_line2": "2 41886  34.9445  15.4577 0011227 216.6757 143.3197 15.51783609500181"
      },
      "geometry": {
        "type": "Point",
        "coordinates": [
          -83.92243219061046,
          -34.89490030621787
        ]
      }
    },
    {
      "type": "Feature",
      "properties": {
        "norad_id": 41887,
        "name": "CYGFM01",
        "group": "weather",
        "lat": 20.243263741188702,
        "lon": 69.98817525268338,
        "alt_km": 423.5904328202514,
        "timestamp": "2025-12-14T11:29:49.700001+00:00",
        "meta_object_name": "CYGFM01",
        "meta_object_id": "2016-078D",
        "meta_epoch": "2025-12-13T13:40:19.792992",
        "meta_mean_motion": 15.48257006,
        "meta_eccentricity": 0.0009752,
        "meta_inclination": 34.9435,
        "meta_ra_of_asc_node": 44.0536,
        "meta_arg_of_pericenter": 183.0783,
        "meta_mean_anomaly": 176.988,
        "meta_ephemeris_type": 0,
        "meta_classification_type": "U",
        "meta_norad_cat_id": 41887,
        "meta_element_set_no": 999,
        "meta_rev_at_epoch": 49983,
        "meta_bstar": 0.00040822074,
        "meta_mean_motion_dot": 0.00022248,
        "meta_mean_motion_ddot": 0,
        "tle_line1": "1 41887U 16078D   25347.56967353  .00022248  00000+0  40822-3 0  9991",
        "tle_line2": "2 41887  34.9435  44.0536 0009752 183.0783 176.9880 15.48257006499833"
      },
      "geometry": {
        "type": "Point",
        "coordinates": [
          69.98817525268338,
          20.243263741188702
        ]
      }
    },
    {
      "type": "Feature",
      "properties": {
        "norad_id": 41888,
        "name": "CYGFM08",
        "group": "weather",
        "lat": 34.86488493124228,
        "lon": 114.98930451744653,
        "alt_km": 415.8427397543164,
        "timestamp": "2025-12-14T11:29:49.700013+00:00",
        "meta_object_name": "CYGFM08",
        "meta_object_id": "2016-078E",
        "meta_epoch": "2025-12-13T11:54:07.901856",
        "meta_mean_motion": 15.49465378,
        "meta_eccentricity": 0.00116593,
        "meta_inclination": 34.9468,
        "meta_ra_of_asc_node": 27.5187,
        "meta_arg_of_pericenter": 205.8189,
        "meta_mean_anomaly": 154.1952,
        "meta_ephemeris_type": 0,
        "meta_classification_type": "U",
        "meta_norad_cat_id": 41888,
        "meta_element_set_no": 999,
        "meta_rev_at_epoch": 50005,
        "meta_bstar": 0.00053834119,
        "meta_mean_motion_dot": 0.00030691,
        "meta_mean_motion_ddot": 0,
        "tle_line1": "1 41888U 16078E   25347.49592479  .00030691  00000+0  53834-3 0  9995",
        "tle_line2": "2 41888  34.9468  27.5187 0011659 205.8189 154.1952 15.49465378500059"
      },
      "geometry": {
        "type": "Point",
        "coordinates": [
          114.98930451744653,
          34.86488493124228
        ]
      }
    }
  ]
}